{
  "type": "FeatureCollection",
  "features": [
    {
      "type": "Feature",
      "properties": {
        "norad_id": 33412,
        "name": "COSMO-SKYMED 3",
        "group": "resource",
        "lat": -40.65855699627846,
        "lon": 15.975196562820214,
        "alt_km": 552.3857430676198,
        "timestamp": "2025-12-18T07:01:54.244361+00:00",
        "meta_object_name": "COSMO-SKYMED 3",
        "meta_object_id": "2008-054A",
        "meta_epoch": "2025-12-17T22:04:39.897408",
        "meta_mean_motion": 15.05406263,
        "meta_eccentricity": 0.0016582,
        "meta_inclination": 97.8472,
        "meta_ra_of_asc_node": 202.3988,
        "meta_arg_of_pericenter": 154.9835,
        "meta_mean_anomaly": 205.2198,
        "meta_ephemeris_type": 0,
        "meta_classification_type": "U",
        "meta_norad_cat_id": 33412,
        "meta_element_set_no": 999,
        "meta_rev_at_epoch": 92965,
        "meta_bstar": 0.0002930482,
        "meta_mean_motion_dot": 4.151e-05,
        "meta_mean_motion_ddot": 0,
        "tle_line1": "1 33412U 08054A   25351.91990622  .00004151  00000+0  29305-3 0  9996",
        "tle_line2": "2 33412  97.8472 202.3988 0016582 154.9835 205.2198 15.05406263929651"
      },
      "geometry": {
        "type": "Point",
        "coordinates": [
          15.975196562820214,
          -40.65855699627846
        ]
      }
    },
    {
      "type": "Feature",
      "properties": {
        "norad_id": 33446,
        "name": "YAOGAN-4",
        "group": "resource",
        "lat": 69.27026699488924,
        "lon": 123.9161340318082,
        "alt_km": 623.0772984633159,
        "timestamp": "2025-12-18T07:01:54.244372+00:00",
        "meta_object_name": "YAOGAN-4",
        "meta_object_id": "2008-061A",
        "meta_epoch": "2025-12-17T19:12:11.057472",
        "meta_mean_motion": 14.82697183,
        "meta_eccentricity": 0.00132703,
        "meta_inclination": 97.9187,
        "meta_ra_of_asc_node": 281.8498,
        "meta_arg_of_pericenter": 305.6483,
        "meta_mean_anomaly": 54.3494,
        "meta_ephemeris_type": 0,
        "meta_classification_type": "U",
        "meta_norad_cat_id": 33446,
        "meta_element_set_no": 999,
        "meta_rev_at_epoch": 91878,
        "meta_bstar": 0.00014708521,
        "meta_mean_motion_dot": 1.134e-05,
        "meta_mean_motion_ddot": 0,
        "tle_line1": "1 33446U 08061A   25351.80012798  .00001134  00000+0  14709-3 0  9998",
        "tle_line2": "2 33446  97.9187 281.8498 0013270 305.6483  54.3494 14.82697183918786"
      },
      "geometry": {
        "type": "Point",
        "coordinates": [
          123.9161340318082,
          69.27026699488924
        ]
      }
    },
    {
      "type": "Feature",
      "properties": {
        "norad_id": 33492,
        "name": "GOSAT (IBUKI)",
        "group": "resource",
        "lat": -38.517539088792994,
        "lon": -85.67097466932866,
        "alt_km": 675.7579578801497,
        "timestamp": "2025-12-18T07:01:54.244382+00:00",
        "meta_object_name": "GOSAT (IBUKI)",
        "meta_object_id": "2009-002A",
        "meta_epoch": "2025-12-17T18:34:58.250784",
        "meta_mean_motion": 14.67535411,
        "meta_eccentricity": 9.763e-05,
        "meta_inclination": 98.0771,
        "meta_ra_of_asc_node": 100.3076,
        "meta_arg_of_pericenter": 98.6054,
        "meta_mean_anomaly": 261.5261,
        "meta_ephemeris_type": 0,
        "meta_classification_type": "U",
        "meta_norad_cat_id": 33492,
        "meta_element_set_no": 999,
        "meta_rev_at_epoch": 90485,
        "meta_bstar": 0.00013150232,
        "meta_mean_motion_dot": 6.98e-06,
        "meta_mean_motion_ddot": 0,
        "tle_line1": "1 33492U 09002A   25351.77428531  .00000698  00000+0  13150-3 0  9990",
        "tle_line2": "2 33492  98.0771 100.3076 0000976  98.6054 261.5261 14.67535411904852"
      },
      "geometry": {
        "type": "Point",
        "coordinates": [
          -85.67097466932866,
          -38.517539088792994
        ]
      }
    },
    {
      "type": "Feature",
      "properties": {
        "norad_id": 35681,
        "name": "DEIMOS-1",
        "group": "resource",
        "lat": 80.51234408804095,
        "lon": 98.43644186520972,
        "alt_km": 636.0711534467482,
        "timestamp": "2025-12-18T07:01:54.244393+00:00",
        "meta_object_name": "DEIMOS-1",
        "meta_object_id": "2009-041A",
        "meta_epoch": "2025-12-17T22:30:34.617024",
        "meta_mean_motion": 14.74960376,
        "meta_eccentricity": 0.00026519,
        "meta_inclination": 97.7141,
        "meta_ra_of_asc_node": 152.2985,
        "meta_arg_of_pericenter": 70.7662,
        "meta_mean_anomaly": 289.3835,
        "meta_ephemeris_type": 0,
        "meta_classification_type": "U",
        "meta_norad_cat_id": 35681,
        "meta_element_set_no": 999,
        "meta_rev_at_epoch": 88016,
        "meta_bstar": 7.7939637e-05,
        "meta_mean_motion_dot": 4.76e-06,
        "meta_mean_motion_ddot": 0,
        "tle_line1": "1 35681U 09041A   25351.93790066  .00000476  00000+0  77940-4 0  9990",
        "tle_line2": "2 35681  97.7141 152.2985 0002651  70.7662 289.3835 14.74960376880166"
      },
      "geometry": {
        "type": "Point",
        "coordinates": [
          98.43644186520972,
          80.51234408804095
        ]
      }
    },
    {
      "type": "Feature",
      "properties": {
        "norad_id": 35682,
        "name": "DUBAISAT-1",
        "group": "resource",
        "lat": 12.44282552986609,
        "lon": 121.11731106870398,
        "alt_km": 646.2209021885474,
        "timestamp": "2025-12-18T07:01:54.244404+00:00",
        "meta_object_name": "DUBAISAT-1",
        "meta_object_id": "2009-041B",
        "meta_epoch": "2025-12-17T19:34:31.012608",
        "meta_mean_motion": 14.74618039,
        "meta_eccentricity": 0.00093323,
        "meta_inclination": 97.9795,
        "meta_ra_of_asc_node": 122.4207,
        "meta_arg_of_pericenter": 296.439,
        "meta_mean_anomaly": 63.5861,
        "meta_ephemeris_type": 0,
        "meta_classification_type": "U",
        "meta_norad_cat_id": 35682,
        "meta_element_set_no": 999,
        "meta_rev_at_epoch": 87836,
        "meta_bstar": 0.00016792736,
        "meta_mean_motion_dot": 1.07e-05,
        "meta_mean_motion_ddot": 0,
        "tle_line1": "1 35682U 09041B   25351.81563672  .00001070  00000+0  16793-3 0  9998",
        "tle_line2": "2 35682  97.9795 122.4207 0009332 296.4390  63.5861 14.74618039878364"
      },
      "geometry": {
        "type": "Point",
        "coordinates": [
          121.11731106870398,
          12.44282552986609
        ]
      }
    },
    {
      "type": "Feature",
      "properties": {
        "norad_id": 35931,
        "name": "OCEANSAT-2",
        "group": "resource",
        "lat": 46.00907878369658,
        "lon": -179.05642952866643,
        "alt_km": 893.6379206807924,
        "timestamp": "2025-12-18T07:01:54.244415+00:00",
        "meta_object_name": "OCEANSAT-2",
        "meta_object_id": "2009-051A",
        "meta_epoch": "2025-12-17T23:32:07.792800",
        "meta_mean_motion": 13.99623591,
        "meta_eccentricity": 0.00160737,
        "meta_inclination": 98.2218,
        "meta_ra_of_asc_node": 352.0496,
        "meta_arg_of_pericenter": 31.3205,
        "meta_mean_anomaly": 328.8916,
        "meta_ephemeris_type": 0,
        "meta_classification_type": "U",
        "meta_norad_cat_id": 35931,
        "meta_element_set_no": 999,
        "meta_rev_at_epoch": 85398,
        "meta_bstar": -6.8049847e-05,
        "meta_mean_motion_dot": -1.37e-06,
        "meta_mean_motion_ddot": 0,
        "tle_line1": "1 35931U 09051A   25351.98064575 -.00000137  00000+0 -68050-4 0  9991",
        "tle_line2": "2 35931  98.2218 352.0496 0016073  31.3205 328.8916 13.99623591853981"
      },
      "geometry": {
        "type": "Point",
        "coordinates": [
          -179.05642952866643,
          46.00907878369658
        ]
      }
    },
    {
      "type": "Feature",
      "properties": {
        "norad_id": 35946,
        "name": "WORLDVIEW-2 (WV-2)",
        "group": "resource",
        "lat": -63.60574112430279,
        "lon": 80.79254270445234,
        "alt_km": 775.0886615448835,
        "timestamp": "2025-12-18T07:01:54.244426+00:00",
        "meta_object_name": "WORLDVIEW-2 (WV-2)",
        "meta_object_id": "2009-055A",
        "meta_epoch": "2025-12-17T19:38:28.836384",
        "meta_mean_motion": 14.37726223,
        "meta_eccentricity": 0.0005025,
        "meta_inclination": 98.4784,
        "meta_ra_of_asc_node": 62.8332,
        "meta_arg_of_pericenter": 58.2904,
        "meta_mean_anomaly": 301.8773,
        "meta_ephemeris_type": 0,
        "meta_classification_type": "U",
        "meta_norad_cat_id": 35946,
        "meta_element_set_no": 999,
        "meta_rev_at_epoch": 84958,
        "meta_bstar": 6.3291976e-05,
        "meta_mean_motion_dot": 1.47e-06,
        "meta_mean_motion_ddot": 0,
        "tle_line1": "1 35946U 09055A   25351.81838931  .00000147  00000+0  63292-4 0  9990",
        "tle_line2": "2 35946  98.4784  62.8332 0005025  58.2904 301.8773 14.37726223849583"
      },
      "geometry": {
        "type": "Point",
        "coordinates": [
          80.79254270445234,
          -63.60574112430279
        ]
      }
    }
  ]
}